ORBCOMM-X               
1 21576U 91050C   25273.12906721  .00000664  00000+0  20971-3 0  9990
2 21576  98.3327 337.5401 0002887 212.4948 147.6065 14.43342121797257
ORBCOMM FM01            
1 23545U 95017A   25273.75685337  .00020792  00000+0  20786-2 0  9998
2 23545  69.9629 170.6639 0003755 202.6946 157.4044 14.91443411628242
ORBCOMM FM02            
1 23546U 95017B   25273.76359935  .00020800  00000+0  20181-2 0  9991
2 23546  69.9642 189.6460 0004940 192.8552 167.2478 14.92633415627908
ORBCOMM FM08            
1 25112U 97084A   25272.92248103  .00003636  00000+0  10470-2 0  9997
2 25112  45.0122 224.9713 0006037  39.2883 320.8406 14.46166314456536
ORBCOMM FM10            
1 25113U 97084B   25272.91944567  .00003807  00000+0  10993-2 0  9994
2 25113  45.0135 227.5542 0005707   2.9814 357.1071 14.45939595631673
ORBCOMM FM11            
1 25114U 97084C   25273.56414750  .00004874  00000+0  14030-2 0  9994
2 25114  45.0119 225.2844 0006383  10.3244 349.7737 14.45693084456724
ORBCOMM FM12            
1 25115U 97084D   25273.59426838  .00004473  00000+0  12907-2 0  9994
2 25115  45.0128 224.8792 0005581   4.9427 355.1478 14.45712150456520
ORBCOMM FM09            
1 25116U 97084E   25273.56689860  .00004552  00000+0  13164-2 0  9992
2 25116  45.0132 226.0522 0007019 359.6839   0.4007 14.45573202456729
